[{"OBJECT_NAME":"NESS","OBJECT_ID":"2023-155E","EPOCH":"2026-03-09T18:20:54.923712","MEAN_MOTION":15.26794015,"ECCENTRICITY":0.00068914,"INCLINATION":97.5941,"RA_OF_ASC_NODE":152.6141,"ARG_OF_PERICENTER":179.8776,"MEAN_ANOMALY":180.2465,"EPHEMERIS_TYPE":0,"CLASSIFICATION_TYPE":"U","NORAD_CAT_ID":58020,"ELEMENT_SET_NO":999,"REV_AT_EPOCH":13330,"BSTAR":0.00074047066,"MEAN_MOTION_DOT":0.00019469,"MEAN_MOTION_DDOT":0},{"OBJECT_NAME":"STARLINK-30953","OBJECT_ID":"2023-186U","EPOCH":"2026-03-08T23:49:57.390240","MEAN_MOTION":15.27577627,"ECCENTRICITY":8.588e-5,"INCLINATION":42.9984,"RA_OF_ASC_NODE":271.4328,"ARG_OF_PERICENTER":255.1282,"MEAN_ANOMALY":104.9475,"EPHEMERIS_TYPE":0,"CLASSIFICATION_TYPE":"U","NORAD_CAT_ID":58491,"ELEMENT_SET_NO":999,"REV_AT_EPOCH":12778,"BSTAR":-6.0877705e-5,"MEAN_MOTION_DOT":-1.936e-5,"MEAN_MOTION_DDOT":0}]
